0 NIMBUS 2 DEB
1 28205U 66040T   13282.66315353  .00001256  00000-0  23785-2 0  4458
2 28205 100.3105 314.7865 0048916 289.5732 195.5637 13.39972304469339
0 NIMBUS 2 DEB
1 28205U 66040T   13283.77047384  .00001373  00000-0  25908-2 0  4467
2 28205 100.3102 315.9120 0049108 286.8563 137.2412 13.39976037469486
0 NIMBUS 2 DEB
1 28205U 66040T   13287.59636902  .00001596  00000-0  29971-2 0  4484
2 28205 100.3091 319.8011 0049991 277.6149 233.1906 13.39986934469990
0 NIMBUS 2 DEB
1 28205U 66040T   13288.77045828  .00001643  00000-0  30822-2 0  4497
2 28205 100.3090 320.9942 0050232 274.8201 136.9406 13.39991044470145
0 NIMBUS 2 DEB
1 28205U 66040T   13290.04255911  .00001549  00000-0  29108-2 0  4508
2 28205 100.3089 322.2871 0050491 271.8141 153.4876 13.39995529470323
0 NIMBUS 2 DEB
1 28205U 66040T   13291.76019593  .00001609  00000-0  30189-2 0  4511
2 28205 100.3086 324.0325 0050940 267.7828 159.2855 13.40000924470553
0 NIMBUS 2 DEB
1 28205U 66040T   13293.34087383  .00001686  00000-0  31590-2 0  4522
2 28205 100.3085 325.6389 0051305 264.1225 224.3803 13.40006083470769
0 NIMBUS 2 DEB
1 28205U 66040T   13294.74587733  .00001762  00000-0  32965-2 0  4534
2 28205 100.3085 327.0666 0051591 260.8784 162.0481 13.40011425470950
0 NIMBUS 2 DEB
1 28205U 66040T   13295.79101670  .00001759  00000-0  32907-2 0  4545
2 28205 100.3084 328.1286 0051814 258.4830 163.7479 13.40014776471095
